{
  "type" : "FeatureCollection",
  "features" : [{"type":"Feature","id":1,"geometry":{"type":"Point","coordinates":[30.301119588000063,7.2835306620000324]},"properties":{"OBJECTID1":1,"OBJECTID":15,"Country_Name":"South Sudan","ISO3166_1_Alpha_3":"SSD","ISO3166_1_Alpha_2":"SS","Refugees":2386499}},{"type":"Feature","id":2,"geometry":{"type":"Point","coordinates":[34.658281500000044,31.028551520000065]},"properties":{"OBJECTID1":2,"OBJECTID":11,"Country_Name":"Israel","ISO3166_1_Alpha_3":"ISR","ISO3166_1_Alpha_2":"IL","Refugees":1265}},{"type":"Feature","id":3,"geometry":{"type":"Point","coordinates":[32.954075834000037,34.911468612000078]},"properties":{"OBJECTID1":3,"OBJECTID":8,"Country_Name":"Cyprus","ISO3166_1_Alpha_3":"CYP","ISO3166_1_Alpha_2":"CY","Refugees":15}},{"type":"Feature","id":4,"geometry":{"type":"Point","coordinates":[114.4032615000001,2.8810906270000487]},"properties":{"OBJECTID1":4,"OBJECTID":2,"Country_Name":"Malaysia","ISO3166_1_Alpha_3":"MYS","ISO3166_1_Alpha_2":"MY","Refugees":2477}},{"type":"Feature","id":5,"geometry":{"type":"Point","coordinates":[-65.149977479999961,-35.17747049299993]},"properties":{"OBJECTID1":5,"OBJECTID":6,"Country_Name":"Argentina","ISO3166_1_Alpha_3":"ARG","ISO3166_1_Alpha_2":"AR","Refugees":542}},{"type":"Feature","id":6,"geometry":{"type":"Point","coordinates":[-64.68475368299994,-16.70687679599996]},"properties":{"OBJECTID1":6,"OBJECTID":4,"Country_Name":"Bolivia","ISO3166_1_Alpha_3":"BOL","ISO3166_1_Alpha_2":"BO","Refugees":710}},{"type":"Feature","id":7,"geometry":{"type":"Point","coordinates":[79.577745404000041,22.913316358000031]},"properties":{"OBJECTID1":7,"OBJECTID":9,"Country_Name":"India","ISO3166_1_Alpha_3":"IND","ISO3166_1_Alpha_2":"IN","Refugees":42610}},{"type":"Feature","id":8,"geometry":{"type":"Point","coordinates":[43.578298250000046,2.790117389000045]},"properties":{"OBJECTID1":8,"OBJECTID":16,"Country_Name":"Somalia","ISO3166_1_Alpha_3":"SOM","ISO3166_1_Alpha_2":"SO","Refugees":892037}},{"type":"Feature","id":9,"geometry":{"type":"Point","coordinates":[39.600551065000047,8.6229517390000296]},"properties":{"OBJECTID1":9,"OBJECTID":14,"Country_Name":"Ethiopia","ISO3166_1_Alpha_3":"ETH","ISO3166_1_Alpha_2":"ET","Refugees":164215}},{"type":"Feature","id":10,"geometry":{"type":"Point","coordinates":[-71.245679544999973,-35.451950384999975]},"properties":{"OBJECTID1":10,"OBJECTID":3,"Country_Name":"Chile","ISO3166_1_Alpha_3":"CHL","ISO3166_1_Alpha_2":"CL","Refugees":5358}},{"type":"Feature","id":11,"geometry":{"type":"Point","coordinates":[113.93360400000006,-0.97841217899997446]},"properties":{"OBJECTID1":11,"OBJECTID":1,"Country_Name":"Indonesia","ISO3166_1_Alpha_3":"IDN","ISO3166_1_Alpha_2":"ID","Refugees":9215}},{"type":"Feature","id":12,"geometry":{"type":"Point","coordinates":[-71.847578499999941,-13.589558883999928]},"properties":{"OBJECTID1":12,"OBJECTID":5,"Country_Name":"Peru","ISO3166_1_Alpha_3":"PER","ISO3166_1_Alpha_2":"PE","Refugees":7885}},{"type":"Feature","id":13,"geometry":{"type":"Point","coordinates":[104.18741750000004,32.320412344000033]},"properties":{"OBJECTID1":13,"OBJECTID":10,"Country_Name":"China","ISO3166_1_Alpha_3":"CHN","ISO3166_1_Alpha_2":"CN","Refugees":153962}},{"type":"Feature","id":14,"geometry":{"type":"Point","coordinates":[35.396190250000075,31.986651146000042]},"properties":{"OBJECTID1":14,"OBJECTID":12,"Country_Name":"Palestine","ISO3166_1_Alpha_3":"PSE","ISO3166_1_Alpha_2":"PS","Refugees":48323}},{"type":"Feature","id":15,"geometry":{"type":"Point","coordinates":[35.879830498000047,33.920093235000024]},"properties":{"OBJECTID1":15,"OBJECTID":13,"Country_Name":"Lebanon","ISO3166_1_Alpha_3":"LBN","ISO3166_1_Alpha_2":"LB","Refugees":9568}},{"type":"Feature","id":16,"geometry":{"type":"Point","coordinates":[15.218336122000039,-0.83887994199994864]},"properties":{"OBJECTID1":16,"OBJECTID":31,"Country_Name":"Republic of the Congo","ISO3166_1_Alpha_3":"COG","ISO3166_1_Alpha_2":"CG","Refugees":13134}},{"type":"Feature","id":17,"geometry":{"type":"Point","coordinates":[127.86718271100005,36.459823613000026]},"properties":{"OBJECTID1":17,"OBJECTID":25,"Country_Name":"South Korea","ISO3166_1_Alpha_3":"KOR","ISO3166_1_Alpha_2":"KR","Refugees":117}},{"type":"Feature","id":18,"geometry":{"type":"Point","coordinates":[-84.191941186999941,9.9747827620000749]},"properties":{"OBJECTID1":18,"OBJECTID":29,"Country_Name":"Costa Rica","ISO3166_1_Alpha_3":"CRI","ISO3166_1_Alpha_2":"CR","Refugees":367}},{"type":"Feature","id":19,"geometry":{"type":"Point","coordinates":[-55.911071354999933,4.1312449480000737]},"properties":{"OBJECTID1":19,"OBJECTID":23,"Country_Name":"Suriname","ISO3166_1_Alpha_3":"SUR","ISO3166_1_Alpha_2":"SR","Refugees":56}},{"type":"Feature","id":20,"geometry":{"type":"Point","coordinates":[-5.0274349999999686,32.738702945000057]},"properties":{"OBJECTID1":20,"OBJECTID":27,"Country_Name":"Morocco","ISO3166_1_Alpha_3":"MAR","ISO3166_1_Alpha_2":"MA","Refugees":10400}},{"type":"Feature","id":21,"geometry":{"type":"Point","coordinates":[34.798532561000059,-6.2755668499999615]},"properties":{"OBJECTID1":21,"OBJECTID":19,"Country_Name":"United Republic of Tanzania","ISO3166_1_Alpha_3":"TZA","ISO3166_1_Alpha_2":"TZ","Refugees":1592}},{"type":"Feature","id":22,"geometry":{"type":"Point","coordinates":[-58.980287410999949,4.7928150750000214]},"properties":{"OBJECTID1":22,"OBJECTID":24,"Country_Name":"Guyana","ISO3166_1_Alpha_3":"GUY","ISO3166_1_Alpha_2":"GY","Refugees":342}},{"type":"Feature","id":23,"geometry":{"type":"Point","coordinates":[37.821488051000074,0.55154633700004752]},"properties":{"OBJECTID1":23,"OBJECTID":17,"Country_Name":"Kenya","ISO3166_1_Alpha_3":"KEN","ISO3166_1_Alpha_2":"KE","Refugees":13325}},{"type":"Feature","id":24,"geometry":{"type":"Point","coordinates":[90.406687843000043,27.421508528000061]},"properties":{"OBJECTID1":24,"OBJECTID":33,"Country_Name":"Bhutan","ISO3166_1_Alpha_3":"BTN","ISO3166_1_Alpha_2":"BT","Refugees":7257}},{"type":"Feature","id":25,"geometry":{"type":"Point","coordinates":[33.47355575000006,-13.41175351499993]},"properties":{"OBJECTID1":25,"OBJECTID":18,"Country_Name":"Malawi","ISO3166_1_Alpha_3":"MWI","ISO3166_1_Alpha_2":"MW","Refugees":551}},{"type":"Feature","id":26,"geometry":{"type":"Point","coordinates":[23.645663460000037,-2.8796458099999427]},"properties":{"OBJECTID1":26,"OBJECTID":32,"Country_Name":"Democratic Republic of the Congo","ISO3166_1_Alpha_3":"COD","ISO3166_1_Alpha_2":"CD","Refugees":1176489}},{"type":"Feature","id":27,"geometry":{"type":"Point","coordinates":[38.504564788000039,35.023003439000036]},"properties":{"OBJECTID1":27,"OBJECTID":20,"Country_Name":"Syria","ISO3166_1_Alpha_3":"SYR","ISO3166_1_Alpha_2":"SY","Refugees":4865764}},{"type":"Feature","id":28,"geometry":{"type":"Point","coordinates":[-85.03434539899996,12.845240174000025]},"properties":{"OBJECTID1":28,"OBJECTID":30,"Country_Name":"Nicaragua","ISO3166_1_Alpha_3":"NIC","ISO3166_1_Alpha_2":"NI","Refugees":35341}},{"type":"Feature","id":29,"geometry":{"type":"Point","coordinates":[127.18672566800001,40.152210306000029]},"properties":{"OBJECTID1":29,"OBJECTID":26,"Country_Name":"North Korea","ISO3166_1_Alpha_3":"PRK","ISO3166_1_Alpha_2":"KP","Refugees":263}},{"type":"Feature","id":30,"geometry":{"type":"Point","coordinates":[-12.892726499999981,23.812849684000071]},"properties":{"OBJECTID1":30,"OBJECTID":28,"Country_Name":"Western Sahara","ISO3166_1_Alpha_3":"ESH","ISO3166_1_Alpha_2":"EH","Refugees":174607}},{"type":"Feature","id":31,"geometry":{"type":"Point","coordinates":[17.211133155000027,-22.129246656999953]},"properties":{"OBJECTID1":31,"OBJECTID":36,"Country_Name":"Namibia","ISO3166_1_Alpha_3":"NAM","ISO3166_1_Alpha_2":"NA","Refugees":685}},{"type":"Feature","id":32,"geometry":{"type":"Point","coordinates":[67.289310362000037,48.156038150000029]},"properties":{"OBJECTID1":32,"OBJECTID":42,"Country_Name":"Kazakhstan","ISO3166_1_Alpha_3":"KAZ","ISO3166_1_Alpha_2":"KZ","Refugees":4144}},{"type":"Feature","id":33,"geometry":{"type":"Point","coordinates":[57.878084250000029,22.004082675000063]},"properties":{"OBJECTID1":33,"OBJECTID":40,"Country_Name":"Oman","ISO3166_1_Alpha_3":"OMN","ISO3166_1_Alpha_2":"OM","Refugees":133}},{"type":"Feature","id":34,"geometry":{"type":"Point","coordinates":[25.159238707000043,-29.009216469999956]},"properties":{"OBJECTID1":34,"OBJECTID":37,"Country_Name":"South Africa","ISO3166_1_Alpha_3":"ZAF","ISO3166_1_Alpha_2":"ZA","Refugees":1319}},{"type":"Feature","id":35,"geometry":{"type":"Point","coordinates":[-56.017130247999944,-32.798251179999966]},"properties":{"OBJECTID1":35,"OBJECTID":46,"Country_Name":"Uruguay","ISO3166_1_Alpha_3":"URY","ISO3166_1_Alpha_2":"UY","Refugees":126}},{"type":"Feature","id":36,"geometry":{"type":"Point","coordinates":[69.298048750000078,38.317300704000047]},"properties":{"OBJECTID1":36,"OBJECTID":43,"Country_Name":"Tajikistan","ISO3166_1_Alpha_3":"TJK","ISO3166_1_Alpha_2":"TJ","Refugees":4163}},{"type":"Feature","id":37,"geometry":{"type":"Point","coordinates":[103.82136800000006,45.977821267000081]},"properties":{"OBJECTID1":37,"OBJECTID":47,"Country_Name":"Mongolia","ISO3166_1_Alpha_3":"MNG","ISO3166_1_Alpha_2":"MN","Refugees":2403}},{"type":"Feature","id":38,"geometry":{"type":"Point","coordinates":[10.370788527000059,51.087103686000034]},"properties":{"OBJECTID1":38,"OBJECTID":50,"Country_Name":"Germany","ISO3166_1_Alpha_3":"DEU","ISO3166_1_Alpha_2":"DE","Refugees":327}},{"type":"Feature","id":39,"geometry":{"type":"Point","coordinates":[15.314102922000075,49.732448149000049]},"properties":{"OBJECTID1":39,"OBJECTID":49,"Country_Name":"Czechia","ISO3166_1_Alpha_3":"CZE","ISO3166_1_Alpha_2":"CZ","Refugees":794}},{"type":"Feature","id":40,"geometry":{"type":"Point","coordinates":[99.07084954000004,61.661131804000036]},"properties":{"OBJECTID1":40,"OBJECTID":48,"Country_Name":"Russia","ISO3166_1_Alpha_3":"RUS","ISO3166_1_Alpha_2":"RU","Refugees":99360}},{"type":"Feature","id":41,"geometry":{"type":"Point","coordinates":[28.033566656000062,53.53188044400008]},"properties":{"OBJECTID1":41,"OBJECTID":35,"Country_Name":"Belarus","ISO3166_1_Alpha_3":"BLR","ISO3166_1_Alpha_2":"BY","Refugees":19462}},{"type":"Feature","id":42,"geometry":{"type":"Point","coordinates":[64.562240000000031,41.193444524000029]},"properties":{"OBJECTID1":42,"OBJECTID":41,"Country_Name":"Uzbekistan","ISO3166_1_Alpha_3":"UZB","ISO3166_1_Alpha_2":"UZ","Refugees":5164}},{"type":"Feature","id":43,"geometry":{"type":"Point","coordinates":[-53.114637892999951,-10.83852087899993]},"properties":{"OBJECTID1":43,"OBJECTID":45,"Country_Name":"Brazil","ISO3166_1_Alpha_3":"BRA","ISO3166_1_Alpha_2":"BR","Refugees":6306}},{"type":"Feature","id":44,"geometry":{"type":"Point","coordinates":[23.894071192000069,55.326733560000037]},"properties":{"OBJECTID1":44,"OBJECTID":44,"Country_Name":"Lithuania","ISO3166_1_Alpha_3":"LTU","ISO3166_1_Alpha_2":"LT","Refugees":101}},{"type":"Feature","id":45,"geometry":{"type":"Point","coordinates":[31.255180173000042,49.160982043000047]},"properties":{"OBJECTID1":45,"OBJECTID":34,"Country_Name":"Ukraine","ISO3166_1_Alpha_3":"UKR","ISO3166_1_Alpha_2":"UA","Refugees":5224131}},{"type":"Feature","id":46,"geometry":{"type":"Point","coordinates":[26.405105750000075,56.633419701000037]},"properties":{"OBJECTID1":46,"OBJECTID":52,"Country_Name":"Latvia","ISO3166_1_Alpha_3":"LVA","ISO3166_1_Alpha_2":"LV","Refugees":189}},{"type":"Feature","id":47,"geometry":{"type":"Point","coordinates":[6.0717639260000738,49.766824343000053]},"properties":{"OBJECTID1":47,"OBJECTID":58,"Country_Name":"Luxembourg","ISO3166_1_Alpha_3":"LUX","ISO3166_1_Alpha_2":"LU","Refugees":20}},{"type":"Feature","id":48,"geometry":{"type":"Point","coordinates":[35.423544063000065,38.989579751000065]},"properties":{"OBJECTID1":48,"OBJECTID":66,"Country_Name":"Turkey","ISO3166_1_Alpha_3":"TUR","ISO3166_1_Alpha_2":"TR","Refugees":149405}},{"type":"Feature","id":49,"geometry":{"type":"Point","coordinates":[53.976492000000064,23.43366185800005]},"properties":{"OBJECTID1":49,"OBJECTID":59,"Country_Name":"United Arab Emirates","ISO3166_1_Alpha_3":"ARE","ISO3166_1_Alpha_2":"AE","Refugees":252}},{"type":"Feature","id":50,"geometry":{"type":"Point","coordinates":[21.683830379000028,41.595004949000042]},"properties":{"OBJECTID1":50,"OBJECTID":62,"Country_Name":"North Macedonia","ISO3166_1_Alpha_3":"MKD","ISO3166_1_Alpha_2":"MK","Refugees":1886}},{"type":"Feature","id":51,"geometry":{"type":"Point","coordinates":[14.371977250000043,60.59460312200008]},"properties":{"OBJECTID1":51,"OBJECTID":54,"Country_Name":"Sweden","ISO3166_1_Alpha_3":"SWE","ISO3166_1_Alpha_2":"SE","Refugees":128}},{"type":"Feature","id":52,"geometry":{"type":"Point","coordinates":[20.05381912200005,41.142482134000034]},"properties":{"OBJECTID1":52,"OBJECTID":63,"Country_Name":"Albania","ISO3166_1_Alpha_3":"ALB","ISO3166_1_Alpha_2":"AL","Refugees":21447}},{"type":"Feature","id":53,"geometry":{"type":"Point","coordinates":[-3.5629097609999576,40.389544414000056]},"properties":{"OBJECTID1":53,"OBJECTID":67,"Country_Name":"Spain","ISO3166_1_Alpha_3":"ESP","ISO3166_1_Alpha_2":"ES","Refugees":186}},{"type":"Feature","id":54,"geometry":{"type":"Point","coordinates":[107.63398100000006,12.899789429000066]},"properties":{"OBJECTID1":54,"OBJECTID":56,"Country_Name":"Vietnam","ISO3166_1_Alpha_3":"VNM","ISO3166_1_Alpha_2":"VN","Refugees":20636}},{"type":"Feature","id":55,"geometry":{"type":"Point","coordinates":[23.359755000000064,61.920951249000041]},"properties":{"OBJECTID1":55,"OBJECTID":55,"Country_Name":"Finland","ISO3166_1_Alpha_3":"FIN","ISO3166_1_Alpha_2":"FI","Refugees":5}},{"type":"Feature","id":56,"geometry":{"type":"Point","coordinates":[43.340389500000072,42.044703537000032]},"properties":{"OBJECTID1":56,"OBJECTID":61,"Country_Name":"Georgia","ISO3166_1_Alpha_3":"GEO","ISO3166_1_Alpha_2":"GE","Refugees":17302}},{"type":"Feature","id":57,"geometry":{"type":"Point","coordinates":[25.831378180000058,58.684171244000026]},"properties":{"OBJECTID1":57,"OBJECTID":51,"Country_Name":"Estonia","ISO3166_1_Alpha_3":"EST","ISO3166_1_Alpha_2":"EE","Refugees":86}},{"type":"Feature","id":58,"geometry":{"type":"Point","coordinates":[47.659729523000067,40.345830078000063]},"properties":{"OBJECTID1":58,"OBJECTID":64,"Country_Name":"Azerbaijan","ISO3166_1_Alpha_3":"AZE","ISO3166_1_Alpha_2":"AZ","Refugees":130983}},{"type":"Feature","id":59,"geometry":{"type":"Point","coordinates":[104.90525198500006,12.718006289000073]},"properties":{"OBJECTID1":59,"OBJECTID":57,"Country_Name":"Cambodia","ISO3166_1_Alpha_3":"KHM","ISO3166_1_Alpha_2":"KH","Refugees":11332}},{"type":"Feature","id":60,"geometry":{"type":"Point","coordinates":[4.6399605430000292,50.637461612000038]},"properties":{"OBJECTID1":60,"OBJECTID":60,"Country_Name":"Belgium","ISO3166_1_Alpha_3":"BEL","ISO3166_1_Alpha_2":"BE","Refugees":113}},{"type":"Feature","id":61,"geometry":{"type":"Point","coordinates":[9.5219815000000381,33.759551879000071]},"properties":{"OBJECTID1":61,"OBJECTID":73,"Country_Name":"Tunisia","ISO3166_1_Alpha_3":"TUN","ISO3166_1_Alpha_2":"TN","Refugees":3711}},{"type":"Feature","id":62,"geometry":{"type":"Point","coordinates":[24.972941889000026,45.853464125000073]},"properties":{"OBJECTID1":62,"OBJECTID":74,"Country_Name":"Romania","ISO3166_1_Alpha_3":"ROU","ISO3166_1_Alpha_2":"RO","Refugees":3130}},{"type":"Feature","id":63,"geometry":{"type":"Point","coordinates":[18.009605246000035,27.030277932000047]},"properties":{"OBJECTID1":63,"OBJECTID":72,"Country_Name":"Libya","ISO3166_1_Alpha_3":"LBY","ISO3166_1_Alpha_2":"LY","Refugees":17161}},{"type":"Feature","id":64,"geometry":{"type":"Point","coordinates":[8.8115342500000224,55.801116119000028]},"properties":{"OBJECTID1":64,"OBJECTID":71,"Country_Name":"Denmark","ISO3166_1_Alpha_3":"DNK","ISO3166_1_Alpha_2":"DK","Refugees":21}},{"type":"Feature","id":65,"geometry":{"type":"Point","coordinates":[101.98889550000007,20.285349457000052]},"properties":{"OBJECTID1":65,"OBJECTID":68,"Country_Name":"Laos","ISO3166_1_Alpha_3":"LAO","ISO3166_1_Alpha_2":"LA","Refugees":6489}},{"type":"Feature","id":66,"geometry":{"type":"Point","coordinates":[-0.23072299999995494,52.24111676900003]},"properties":{"OBJECTID1":66,"OBJECTID":79,"Country_Name":"United Kingdom","ISO3166_1_Alpha_3":"GBR","ISO3166_1_Alpha_2":"GB","Refugees":517}},{"type":"Feature","id":67,"geometry":{"type":"Point","coordinates":[19.396759330000066,47.163243698000031]},"properties":{"OBJECTID1":67,"OBJECTID":75,"Country_Name":"Hungary","ISO3166_1_Alpha_3":"HUN","ISO3166_1_Alpha_2":"HU","Refugees":2055}},{"type":"Feature","id":68,"geometry":{"type":"Point","coordinates":[-9.3198639839999373,6.4522325820000219]},"properties":{"OBJECTID1":68,"OBJECTID":84,"Country_Name":"Liberia","ISO3166_1_Alpha_3":"LBR","ISO3166_1_Alpha_2":"LR","Refugees":5117}},{"type":"Feature","id":69,"geometry":{"type":"Point","coordinates":[44.931730833000074,40.288596875000053]},"properties":{"OBJECTID1":69,"OBJECTID":70,"Country_Name":"Armenia","ISO3166_1_Alpha_3":"ARM","ISO3166_1_Alpha_2":"AM","Refugees":15578}},{"type":"Feature","id":70,"geometry":{"type":"Point","coordinates":[-8.1382624609999539,53.17669593100004]},"properties":{"OBJECTID1":70,"OBJECTID":78,"Country_Name":"Ireland","ISO3166_1_Alpha_3":"IRL","ISO3166_1_Alpha_2":"IE","Refugees":69}},{"type":"Feature","id":71,"geometry":{"type":"Point","coordinates":[27.827040500000066,-14.608140626999955]},"properties":{"OBJECTID1":71,"OBJECTID":81,"Country_Name":"Zambia","ISO3166_1_Alpha_3":"ZMB","ISO3166_1_Alpha_2":"ZM","Refugees":346}},{"type":"Feature","id":72,"geometry":{"type":"Point","coordinates":[19.480382918000032,48.704935300000045]},"properties":{"OBJECTID1":72,"OBJECTID":76,"Country_Name":"Slovakia","ISO3166_1_Alpha_3":"SVK","ISO3166_1_Alpha_2":"SK","Refugees":625}},{"type":"Feature","id":73,"geometry":{"type":"Point","coordinates":[74.531796324000084,41.457672150000064]},"properties":{"OBJECTID1":73,"OBJECTID":69,"Country_Name":"Kyrgyzstan","ISO3166_1_Alpha_3":"KGZ","ISO3166_1_Alpha_2":"KG","Refugees":3337}},{"type":"Feature","id":74,"geometry":{"type":"Point","coordinates":[-11.787342954999929,8.5719108280000569]},"properties":{"OBJECTID1":74,"OBJECTID":82,"Country_Name":"Sierra Leone","ISO3166_1_Alpha_3":"SLE","ISO3166_1_Alpha_2":"SL","Refugees":8925}},{"type":"Feature","id":75,"geometry":{"type":"Point","coordinates":[-11.371785999999929,11.031439066000075]},"properties":{"OBJECTID1":75,"OBJECTID":83,"Country_Name":"Guinea","ISO3166_1_Alpha_3":"GIN","ISO3166_1_Alpha_2":"GN","Refugees":47692}},{"type":"Feature","id":76,"geometry":{"type":"Point","coordinates":[22.581859678000058,39.474998079000045]},"properties":{"OBJECTID1":76,"OBJECTID":80,"Country_Name":"Greece","ISO3166_1_Alpha_3":"GRC","ISO3166_1_Alpha_2":"GR","Refugees":94}},{"type":"Feature","id":77,"geometry":{"type":"Point","coordinates":[19.394322185000078,52.124771810000027]},"properties":{"OBJECTID1":77,"OBJECTID":77,"Country_Name":"Poland","ISO3166_1_Alpha_3":"POL","ISO3166_1_Alpha_2":"PL","Refugees":1368}},{"type":"Feature","id":78,"geometry":{"type":"Point","coordinates":[12.560077000000035,42.80859048800005]},"properties":{"OBJECTID1":78,"OBJECTID":91,"Country_Name":"Italy","ISO3166_1_Alpha_3":"ITA","ISO3166_1_Alpha_2":"IT","Refugees":266}},{"type":"Feature","id":79,"geometry":{"type":"Point","coordinates":[29.935266761000037,15.98015358300006]},"properties":{"OBJECTID1":79,"OBJECTID":86,"Country_Name":"Sudan","ISO3166_1_Alpha_3":"SDN","ISO3166_1_Alpha_2":"SD","Refugees":2820737}},{"type":"Feature","id":80,"geometry":{"type":"Point","coordinates":[-14.471305976999929,14.367788645000076]},"properties":{"OBJECTID1":80,"OBJECTID":99,"Country_Name":"Senegal","ISO3166_1_Alpha_3":"SEN","ISO3166_1_Alpha_2":"SN","Refugees":13028}},{"type":"Feature","id":81,"geometry":{"type":"Point","coordinates":[2.328740683000035,9.6412166020000427]},"properties":{"OBJECTID1":81,"OBJECTID":101,"Country_Name":"Benin","ISO3166_1_Alpha_3":"BEN","ISO3166_1_Alpha_2":"BJ","Refugees":1279}},{"type":"Feature","id":82,"geometry":{"type":"Point","coordinates":[38.098703000000057,16.086845112000049]},"properties":{"OBJECTID1":82,"OBJECTID":88,"Country_Name":"Eritrea","ISO3166_1_Alpha_3":"ERI","ISO3166_1_Alpha_2":"ER","Refugees":554891}},{"type":"Feature","id":83,"geometry":{"type":"Point","coordinates":[8.2107180000000426,46.97259000400004]},"properties":{"OBJECTID1":83,"OBJECTID":92,"Country_Name":"Switzerland","ISO3166_1_Alpha_3":"CHE","ISO3166_1_Alpha_2":"CH","Refugees":6}},{"type":"Feature","id":84,"geometry":{"type":"Point","coordinates":[-3.5390793979999557,17.344162746000052]},"properties":{"OBJECTID1":84,"OBJECTID":98,"Country_Name":"Mali","ISO3166_1_Alpha_3":"MLI","ISO3166_1_Alpha_2":"ML","Refugees":519738}},{"type":"Feature","id":85,"geometry":{"type":"Point","coordinates":[5.3227690000000507,52.172351035000077]},"properties":{"OBJECTID1":85,"OBJECTID":94,"Country_Name":"Netherlands","ISO3166_1_Alpha_3":"NLD","ISO3166_1_Alpha_2":"NL","Refugees":159}},{"type":"Feature","id":86,"geometry":{"type":"Point","coordinates":[42.166510500000072,11.574902067000039]},"properties":{"OBJECTID1":86,"OBJECTID":87,"Country_Name":"Djibouti","ISO3166_1_Alpha_3":"DJI","ISO3166_1_Alpha_2":"DJ","Refugees":2223}},{"type":"Feature","id":87,"geometry":{"type":"Point","coordinates":[-5.5694746399999531,7.6284692240000709]},"properties":{"OBJECTID1":87,"OBJECTID":96,"Country_Name":"Ivory Coast","ISO3166_1_Alpha_3":"CIV","ISO3166_1_Alpha_2":"CI","Refugees":32506}},{"type":"Feature","id":88,"geometry":{"type":"Point","coordinates":[54.275624773000061,32.576843990000043]},"properties":{"OBJECTID1":88,"OBJECTID":93,"Country_Name":"Iran","ISO3166_1_Alpha_3":"IRN","ISO3166_1_Alpha_2":"IR","Refugees":157912}},{"type":"Feature","id":89,"geometry":{"type":"Point","coordinates":[8.0914899440000454,9.5969713410000281]},"properties":{"OBJECTID1":89,"OBJECTID":100,"Country_Name":"Nigeria","ISO3166_1_Alpha_3":"NGA","ISO3166_1_Alpha_2":"NG","Refugees":478150}},{"type":"Feature","id":90,"geometry":{"type":"Point","coordinates":[14.130672976000028,47.585656928000049]},"properties":{"OBJECTID1":90,"OBJECTID":89,"Country_Name":"Austria","ISO3166_1_Alpha_3":"AUT","ISO3166_1_Alpha_2":"AT","Refugees":33}},{"type":"Feature","id":91,"geometry":{"type":"Point","coordinates":[43.744977016000064,33.039803790000065]},"properties":{"OBJECTID1":91,"OBJECTID":90,"Country_Name":"Iraq","ISO3166_1_Alpha_3":"IRQ","ISO3166_1_Alpha_2":"IQ","Refugees":270671}},{"type":"Feature","id":92,"geometry":{"type":"Point","coordinates":[20.789252435000037,44.222147644000074]},"properties":{"OBJECTID1":92,"OBJECTID":97,"Country_Name":"Republic of Serbia","ISO3166_1_Alpha_3":"SRB","ISO3166_1_Alpha_2":"RS","Refugees":29665}},{"type":"Feature","id":93,"geometry":{"type":"Point","coordinates":[20.914283500000067,6.9956757420000599]},"properties":{"OBJECTID1":93,"OBJECTID":85,"Country_Name":"Central African Republic","ISO3166_1_Alpha_3":"CAF","ISO3166_1_Alpha_2":"CF","Refugees":674222}},{"type":"Feature","id":94,"geometry":{"type":"Point","coordinates":[47.482608500000026,29.51003100500003]},"properties":{"OBJECTID1":94,"OBJECTID":116,"Country_Name":"Kuwait","ISO3166_1_Alpha_3":"KWT","ISO3166_1_Alpha_2":"KW","Refugees":3369}},{"type":"Feature","id":95,"geometry":{"type":"Point","coordinates":[101.00874652200008,15.137214350000022]},"properties":{"OBJECTID1":95,"OBJECTID":111,"Country_Name":"Thailand","ISO3166_1_Alpha_3":"THA","ISO3166_1_Alpha_2":"TH","Refugees":327}},{"type":"Feature","id":96,"geometry":{"type":"Point","coordinates":[25.217512546000023,42.76852262400007]},"properties":{"OBJECTID1":96,"OBJECTID":110,"Country_Name":"Bulgaria","ISO3166_1_Alpha_3":"BGR","ISO3166_1_Alpha_2":"BG","Refugees":533}},{"type":"Feature","id":97,"geometry":{"type":"Point","coordinates":[17.931247250000069,45.443586847000063]},"properties":{"OBJECTID1":97,"OBJECTID":103,"Country_Name":"Croatia","ISO3166_1_Alpha_3":"HRV","ISO3166_1_Alpha_2":"HR","Refugees":17207}},{"type":"Feature","id":98,"geometry":{"type":"Point","coordinates":[-72.351624749999985,18.379849870000044]},"properties":{"OBJECTID1":98,"OBJECTID":113,"Country_Name":"Haiti","ISO3166_1_Alpha_3":"HTI","ISO3166_1_Alpha_2":"HT","Refugees":180702}},{"type":"Feature","id":99,"geometry":{"type":"Point","coordinates":[51.186831350000034,25.313074665000045]},"properties":{"OBJECTID1":99,"OBJECTID":105,"Country_Name":"Qatar","ISO3166_1_Alpha_3":"QAT","ISO3166_1_Alpha_2":"QA","Refugees":73}},{"type":"Feature","id":100,"geometry":{"type":"Point","coordinates":[-88.872324658999958,13.736452837000058]},"properties":{"OBJECTID1":100,"OBJECTID":117,"Country_Name":"El Salvador","ISO3166_1_Alpha_3":"SLV","ISO3166_1_Alpha_2":"SV","Refugees":68182}},{"type":"Feature","id":101,"geometry":{"type":"Point","coordinates":[-91.239926999999966,15.005260523000061]},"properties":{"OBJECTID1":101,"OBJECTID":118,"Country_Name":"Guatemala","ISO3166_1_Alpha_3":"GTM","ISO3166_1_Alpha_2":"GT","Refugees":34994}},{"type":"Feature","id":102,"geometry":{"type":"Point","coordinates":[18.646251103000054,15.333078110000031]},"properties":{"OBJECTID1":102,"OBJECTID":115,"Country_Name":"Chad","ISO3166_1_Alpha_3":"TCD","ISO3166_1_Alpha_2":"TD","Refugees":15281}},{"type":"Feature","id":103,"geometry":{"type":"Point","coordinates":[29.851884627000061,-19.002536684999939]},"properties":{"OBJECTID1":103,"OBJECTID":108,"Country_Name":"Zimbabwe","ISO3166_1_Alpha_3":"ZWE","ISO3166_1_Alpha_2":"ZW","Refugees":6632}},{"type":"Feature","id":104,"geometry":{"type":"Point","coordinates":[69.34141797400008,29.94872851100007]},"properties":{"OBJECTID1":104,"OBJECTID":109,"Country_Name":"Pakistan","ISO3166_1_Alpha_3":"PAK","ISO3166_1_Alpha_2":"PK","Refugees":90497}},{"type":"Feature","id":105,"geometry":{"type":"Point","coordinates":[17.564336298000057,-12.330512728999963]},"properties":{"OBJECTID1":105,"OBJECTID":102,"Country_Name":"Angola","ISO3166_1_Alpha_3":"AGO","ISO3166_1_Alpha_2":"AO","Refugees":13433}},{"type":"Feature","id":106,"geometry":{"type":"Point","coordinates":[44.538635853000073,24.124096723000036]},"properties":{"OBJECTID1":106,"OBJECTID":106,"Country_Name":"Saudi Arabia","ISO3166_1_Alpha_3":"SAU","ISO3166_1_Alpha_2":"SA","Refugees":2368}},{"type":"Feature","id":107,"geometry":{"type":"Point","coordinates":[14.940281500000026,46.063557543000059]},"properties":{"OBJECTID1":107,"OBJECTID":104,"Country_Name":"Slovenia","ISO3166_1_Alpha_3":"SVN","ISO3166_1_Alpha_2":"SI","Refugees":12}},{"type":"Feature","id":108,"geometry":{"type":"Point","coordinates":[23.798986701000047,-22.185772285999974]},"properties":{"OBJECTID1":108,"OBJECTID":107,"Country_Name":"Botswana","ISO3166_1_Alpha_3":"BWA","ISO3166_1_Alpha_2":"BW","Refugees":384}},{"type":"Feature","id":109,"geometry":{"type":"Point","coordinates":[-70.500342953999962,18.899232844000039]},"properties":{"OBJECTID1":109,"OBJECTID":114,"Country_Name":"Dominican Republic","ISO3166_1_Alpha_3":"DOM","ISO3166_1_Alpha_2":"DO","Refugees":1240}},{"type":"Feature","id":110,"geometry":{"type":"Point","coordinates":[29.919060744000035,-1.9927505319999455]},"properties":{"OBJECTID1":110,"OBJECTID":126,"Country_Name":"Rwanda","ISO3166_1_Alpha_3":"RWA","ISO3166_1_Alpha_2":"RW","Refugees":244415}},{"type":"Feature","id":111,"geometry":{"type":"Point","coordinates":[90.227339819000065,23.881420255000023]},"properties":{"OBJECTID1":111,"OBJECTID":128,"Country_Name":"Bangladesh","ISO3166_1_Alpha_3":"BGD","ISO3166_1_Alpha_2":"BD","Refugees":31862}},{"type":"Feature","id":112,"geometry":{"type":"Point","coordinates":[38.189455250000037,-14.276269931999934]},"properties":{"OBJECTID1":112,"OBJECTID":123,"Country_Name":"Mozambique","ISO3166_1_Alpha_3":"MOZ","ISO3166_1_Alpha_2":"MZ","Refugees":119}},{"type":"Feature","id":113,"geometry":{"type":"Point","coordinates":[2.6530913860000283,28.148889643000075]},"properties":{"OBJECTID1":113,"OBJECTID":122,"Country_Name":"Algeria","ISO3166_1_Alpha_3":"DZA","ISO3166_1_Alpha_2":"DZ","Refugees":9174}},{"type":"Feature","id":114,"geometry":{"type":"Point","coordinates":[32.367039869000052,1.2756913020000411]},"properties":{"OBJECTID1":114,"OBJECTID":133,"Country_Name":"Uganda","ISO3166_1_Alpha_3":"UGA","ISO3166_1_Alpha_2":"UG","Refugees":12792}},{"type":"Feature","id":115,"geometry":{"type":"Point","coordinates":[-79.541248999999937,22.093377394000072]},"properties":{"OBJECTID1":115,"OBJECTID":135,"Country_Name":"Cuba","ISO3166_1_Alpha_3":"CUB","ISO3166_1_Alpha_2":"CU","Refugees":29395}},{"type":"Feature","id":116,"geometry":{"type":"Point","coordinates":[114.59802904700007,4.4933262400000444]},"properties":{"OBJECTID1":116,"OBJECTID":120,"Country_Name":"Brunei","ISO3166_1_Alpha_3":"BRN","ISO3166_1_Alpha_2":"BN","Refugees":5}},{"type":"Feature","id":117,"geometry":{"type":"Point","coordinates":[17.773407983000027,44.171734036000032]},"properties":{"OBJECTID1":117,"OBJECTID":132,"Country_Name":"Bosnia and Herzegovina","ISO3166_1_Alpha_3":"BIH","ISO3166_1_Alpha_2":"BA","Refugees":24653}},{"type":"Feature","id":118,"geometry":{"type":"Point","coordinates":[125.93659590300001,-8.8037267739999265]},"properties":{"OBJECTID1":118,"OBJECTID":119,"Country_Name":"East Timor","ISO3166_1_Alpha_3":"TLS","ISO3166_1_Alpha_2":"TL","Refugees":15}},{"type":"Feature","id":119,"geometry":{"type":"Point","coordinates":[66.008447669000077,33.836267037000027]},"properties":{"OBJECTID1":119,"OBJECTID":130,"Country_Name":"Afghanistan","ISO3166_1_Alpha_3":"AFG","ISO3166_1_Alpha_2":"AF","Refugees":2671560}},{"type":"Feature","id":120,"geometry":{"type":"Point","coordinates":[96.488799644000039,21.213845522000042]},"properties":{"OBJECTID1":120,"OBJECTID":127,"Country_Name":"Myanmar","ISO3166_1_Alpha_3":"MMR","ISO3166_1_Alpha_2":"MM","Refugees":1524378}},{"type":"Feature","id":121,"geometry":{"type":"Point","coordinates":[29.875082730000031,-3.3574253679999515]},"properties":{"OBJECTID1":121,"OBJECTID":125,"Country_Name":"Burundi","ISO3166_1_Alpha_3":"BDI","ISO3166_1_Alpha_2":"BI","Refugees":318291}},{"type":"Feature","id":122,"geometry":{"type":"Point","coordinates":[19.238499986000022,42.785818154000026]},"properties":{"OBJECTID1":122,"OBJECTID":131,"Country_Name":"Montenegro","ISO3166_1_Alpha_3":"MNE","ISO3166_1_Alpha_2":"ME","Refugees":696}},{"type":"Feature","id":123,"geometry":{"type":"Point","coordinates":[31.480024099000047,-26.561914238999975]},"properties":{"OBJECTID1":123,"OBJECTID":124,"Country_Name":"eSwatini","ISO3166_1_Alpha_3":"SWZ","ISO3166_1_Alpha_2":"SZ","Refugees":220}},{"type":"Feature","id":124,"geometry":{"type":"Point","coordinates":[1.5607561360000659,42.541326539000067]},"properties":{"OBJECTID1":124,"OBJECTID":129,"Country_Name":"Andorra","ISO3166_1_Alpha_3":"AND","ISO3166_1_Alpha_2":"AD","Refugees":5}},{"type":"Feature","id":125,"geometry":{"type":"Point","coordinates":[-60.549089999999978,-21.678233692999981]},"properties":{"OBJECTID1":125,"OBJECTID":139,"Country_Name":"Paraguay","ISO3166_1_Alpha_3":"PRY","ISO3166_1_Alpha_2":"PY","Refugees":162}},{"type":"Feature","id":126,"geometry":{"type":"Point","coordinates":[59.377467799000044,39.115923028000054]},"properties":{"OBJECTID1":126,"OBJECTID":143,"Country_Name":"Turkmenistan","ISO3166_1_Alpha_3":"TKM","ISO3166_1_Alpha_2":"TM","Refugees":1864}},{"type":"Feature","id":127,"geometry":{"type":"Point","coordinates":[12.736984156000062,5.6930582080000249]},"properties":{"OBJECTID1":127,"OBJECTID":147,"Country_Name":"Cameroon","ISO3166_1_Alpha_3":"CMR","ISO3166_1_Alpha_2":"CM","Refugees":140366}},{"type":"Feature","id":128,"geometry":{"type":"Point","coordinates":[-1.7555277329999512,12.269553890000054]},"properties":{"OBJECTID1":128,"OBJECTID":150,"Country_Name":"Burkina Faso","ISO3166_1_Alpha_3":"BFA","ISO3166_1_Alpha_2":"BF","Refugees":351209}},{"type":"Feature","id":129,"geometry":{"type":"Point","coordinates":[11.790918802000022,-0.59161193199997797]},"properties":{"OBJECTID1":129,"OBJECTID":148,"Country_Name":"Gabon","ISO3166_1_Alpha_3":"GAB","ISO3166_1_Alpha_2":"GA","Refugees":984}},{"type":"Feature","id":130,"geometry":{"type":"Point","coordinates":[9.3860340310000652,17.418463779000035]},"properties":{"OBJECTID1":130,"OBJECTID":149,"Country_Name":"Niger","ISO3166_1_Alpha_3":"NER","ISO3166_1_Alpha_2":"NE","Refugees":85591}},{"type":"Feature","id":131,"geometry":{"type":"Point","coordinates":[28.461397099000067,47.195101515000033]},"properties":{"OBJECTID1":131,"OBJECTID":142,"Country_Name":"Moldova","ISO3166_1_Alpha_3":"MDA","ISO3166_1_Alpha_2":"MD","Refugees":5846}},{"type":"Feature","id":132,"geometry":{"type":"Point","coordinates":[-78.387217558999964,-1.4488623859999734]},"properties":{"OBJECTID1":132,"OBJECTID":137,"Country_Name":"Ecuador","ISO3166_1_Alpha_3":"ECU","ISO3166_1_Alpha_2":"EC","Refugees":5723}},{"type":"Feature","id":133,"geometry":{"type":"Point","coordinates":[83.916253381000047,28.247922232000064]},"properties":{"OBJECTID1":133,"OBJECTID":145,"Country_Name":"Nepal","ISO3166_1_Alpha_3":"NPL","ISO3166_1_Alpha_2":"NP","Refugees":8019}},{"type":"Feature","id":134,"geometry":{"type":"Point","coordinates":[-1.2165238429999476,7.9539547240000275]},"properties":{"OBJECTID1":134,"OBJECTID":152,"Country_Name":"Ghana","ISO3166_1_Alpha_3":"GHA","ISO3166_1_Alpha_2":"GH","Refugees":16030}},{"type":"Feature","id":135,"geometry":{"type":"Point","coordinates":[-73.081342245999963,3.9093072300000244]},"properties":{"OBJECTID1":135,"OBJECTID":138,"Country_Name":"Colombia","ISO3166_1_Alpha_3":"COL","ISO3166_1_Alpha_2":"CO","Refugees":79669}},{"type":"Feature","id":136,"geometry":{"type":"Point","coordinates":[-86.62516179499994,14.818428229000062]},"properties":{"OBJECTID1":136,"OBJECTID":136,"Country_Name":"Honduras","ISO3166_1_Alpha_3":"HND","ISO3166_1_Alpha_2":"HN","Refugees":94449}},{"type":"Feature","id":137,"geometry":{"type":"Point","coordinates":[0.96227157900005977,8.526788151000062]},"properties":{"OBJECTID1":137,"OBJECTID":151,"Country_Name":"Togo","ISO3166_1_Alpha_3":"TGO","ISO3166_1_Alpha_2":"TG","Refugees":12661}},{"type":"Feature","id":138,"geometry":{"type":"Point","coordinates":[37.120692000000076,30.636317814000051]},"properties":{"OBJECTID1":138,"OBJECTID":144,"Country_Name":"Jordan","ISO3166_1_Alpha_3":"JOR","ISO3166_1_Alpha_2":"JO","Refugees":5471}},{"type":"Feature","id":139,"geometry":{"type":"Point","coordinates":[-7.974696756999947,39.680823134000036]},"properties":{"OBJECTID1":139,"OBJECTID":141,"Country_Name":"Portugal","ISO3166_1_Alpha_3":"PRT","ISO3166_1_Alpha_2":"PT","Refugees":109}},{"type":"Feature","id":140,"geometry":{"type":"Point","coordinates":[28.228622937000068,-29.579730383999959]},"properties":{"OBJECTID1":140,"OBJECTID":146,"Country_Name":"Lesotho","ISO3166_1_Alpha_3":"LSO","ISO3166_1_Alpha_2":"LS","Refugees":27}},{"type":"Feature","id":141,"geometry":{"type":"Point","coordinates":[-99.144487402999971,39.528000593000058]},"properties":{"OBJECTID1":141,"OBJECTID":155,"Country_Name":"United States of America","ISO3166_1_Alpha_3":"USA","ISO3166_1_Alpha_2":"US","Refugees":3667}},{"type":"Feature","id":142,"geometry":{"type":"Point","coordinates":[-16.076953999999944,13.28818897900004]},"properties":{"OBJECTID1":142,"OBJECTID":166,"Country_Name":"Gambia","ISO3166_1_Alpha_3":"GMB","ISO3166_1_Alpha_2":"GM","Refugees":6728}},{"type":"Feature","id":143,"geometry":{"type":"Point","coordinates":[144.24980730200002,-6.612073478999946]},"properties":{"OBJECTID1":143,"OBJECTID":161,"Country_Name":"Papua New Guinea","ISO3166_1_Alpha_3":"PNG","ISO3166_1_Alpha_2":"PG","Refugees":644}},{"type":"Feature","id":144,"geometry":{"type":"Point","coordinates":[29.86033076800004,26.492610032000073]},"properties":{"OBJECTID1":144,"OBJECTID":162,"Country_Name":"Egypt","ISO3166_1_Alpha_3":"EGY","ISO3166_1_Alpha_2":"EG","Refugees":23763}},{"type":"Feature","id":145,"geometry":{"type":"Point","coordinates":[45.230174250000061,15.21716123300007]},"properties":{"OBJECTID1":145,"OBJECTID":163,"Country_Name":"Yemen","ISO3166_1_Alpha_3":"YEM","ISO3166_1_Alpha_2":"YE","Refugees":57327}},{"type":"Feature","id":146,"geometry":{"type":"Point","coordinates":[-78.635763999999938,9.0768031450000422]},"properties":{"OBJECTID1":146,"OBJECTID":159,"Country_Name":"Panama","ISO3166_1_Alpha_3":"PAN","ISO3166_1_Alpha_2":"PA","Refugees":375}},{"type":"Feature","id":147,"geometry":{"type":"Point","coordinates":[-66.183708281999941,7.1173797340000533]},"properties":{"OBJECTID1":147,"OBJECTID":160,"Country_Name":"Venezuela","ISO3166_1_Alpha_3":"VEN","ISO3166_1_Alpha_2":"VE","Refugees":417010}},{"type":"Feature","id":148,"geometry":{"type":"Point","coordinates":[-102.51051580399997,23.942433244000028]},"properties":{"OBJECTID1":148,"OBJECTID":157,"Country_Name":"Mexico","ISO3166_1_Alpha_3":"MEX","ISO3166_1_Alpha_2":"MX","Refugees":41307}},{"type":"Feature","id":149,"geometry":{"type":"Point","coordinates":[-102.35642645499996,57.939412860000061]},"properties":{"OBJECTID1":149,"OBJECTID":156,"Country_Name":"Canada","ISO3166_1_Alpha_3":"CAN","ISO3166_1_Alpha_2":"CA","Refugees":360}},{"type":"Feature","id":150,"geometry":{"type":"Point","coordinates":[114.02306125000007,22.414136434000056]},"properties":{"OBJECTID1":150,"OBJECTID":167,"Country_Name":"Hong Kong S.A.R.","ISO3166_1_Alpha_3":"HKG","ISO3166_1_Alpha_2":"HK","Refugees":245}},{"type":"Feature","id":151,"geometry":{"type":"Point","coordinates":[-10.342116438999938,20.256322069000078]},"properties":{"OBJECTID1":151,"OBJECTID":164,"Country_Name":"Mauritania","ISO3166_1_Alpha_3":"MRT","ISO3166_1_Alpha_2":"MR","Refugees":43906}},{"type":"Feature","id":152,"geometry":{"type":"Point","coordinates":[10.467410549000022,1.5651757830000292]},"properties":{"OBJECTID1":152,"OBJECTID":165,"Country_Name":"Equatorial Guinea","ISO3166_1_Alpha_3":"GNQ","ISO3166_1_Alpha_2":"GQ","Refugees":424}},{"type":"Feature","id":153,"geometry":{"type":"Point","coordinates":[-88.704043422999973,17.201471495000078]},"properties":{"OBJECTID1":153,"OBJECTID":158,"Country_Name":"Belize","ISO3166_1_Alpha_3":"BLZ","ISO3166_1_Alpha_2":"BZ","Refugees":108}},{"type":"Feature","id":154,"geometry":{"type":"Point","coordinates":[-14.42764324999996,12.119652237000025]},"properties":{"OBJECTID1":154,"OBJECTID":153,"Country_Name":"Guinea-Bissau","ISO3166_1_Alpha_3":"GNB","ISO3166_1_Alpha_2":"GW","Refugees":1800}},{"type":"Feature","id":155,"geometry":{"type":"Point","coordinates":[134.35407492700006,-25.573577150999938]},"properties":{"OBJECTID1":155,"OBJECTID":177,"Country_Name":"Australia","ISO3166_1_Alpha_3":"AUS","ISO3166_1_Alpha_2":"AU","Refugees":41}},{"type":"Feature","id":156,"geometry":{"type":"Point","coordinates":[170.52000470500002,-43.984230360999959]},"properties":{"OBJECTID1":156,"OBJECTID":180,"Country_Name":"New Zealand","ISO3166_1_Alpha_3":"NZL","ISO3166_1_Alpha_2":"NZ","Refugees":58}},{"type":"Feature","id":157,"geometry":{"type":"Point","coordinates":[-69.974200887999984,12.516935254000032]},"properties":{"OBJECTID1":157,"OBJECTID":186,"Country_Name":"Aruba","ISO3166_1_Alpha_3":"ABW","ISO3166_1_Alpha_2":"AW","Refugees":0}},{"type":"Feature","id":158,"geometry":{"type":"Point","coordinates":[-68.955738499999939,12.155979530000025]},"properties":{"OBJECTID1":158,"OBJECTID":185,"Country_Name":"Curaçao","ISO3166_1_Alpha_3":"CUW","ISO3166_1_Alpha_2":"CW","Refugees":8}},{"type":"Feature","id":159,"geometry":{"type":"Point","coordinates":[46.704131505000078,-19.376895652999963]},"properties":{"OBJECTID1":159,"OBJECTID":182,"Country_Name":"Madagascar","ISO3166_1_Alpha_3":"MDG","ISO3166_1_Alpha_2":"MG","Refugees":637}},{"type":"Feature","id":160,"geometry":{"type":"Point","coordinates":[177.97519893300012,-17.824134040999979]},"properties":{"OBJECTID1":160,"OBJECTID":179,"Country_Name":"Fiji","ISO3166_1_Alpha_3":"FJI","ISO3166_1_Alpha_2":"FJ","Refugees":343}},{"type":"Feature","id":161,"geometry":{"type":"Point","coordinates":[120.86384100000009,14.179700321000041]},"properties":{"OBJECTID1":161,"OBJECTID":183,"Country_Name":"Philippines","ISO3166_1_Alpha_3":"PHL","ISO3166_1_Alpha_2":"PH","Refugees":807}},{"type":"Feature","id":162,"geometry":{"type":"Point","coordinates":[80.705153430000053,7.6093602740000392]},"properties":{"OBJECTID1":162,"OBJECTID":184,"Country_Name":"Sri Lanka","ISO3166_1_Alpha_3":"LKA","ISO3166_1_Alpha_2":"LK","Refugees":148369}},{"type":"Feature","id":163,"geometry":{"type":"Point","coordinates":[171.21461000000011,7.0755659180000521]},"properties":{"OBJECTID1":163,"OBJECTID":198,"Country_Name":"Marshall Islands","ISO3166_1_Alpha_3":"MHL","ISO3166_1_Alpha_2":"MH","Refugees":0}},{"type":"Feature","id":164,"geometry":{"type":"Point","coordinates":[-60.970316443999934,13.90267059100006]},"properties":{"OBJECTID1":164,"OBJECTID":203,"Country_Name":"Saint Lucia","ISO3166_1_Alpha_3":"LCA","ISO3166_1_Alpha_2":"LC","Refugees":199}},{"type":"Feature","id":165,"geometry":{"type":"Point","coordinates":[-157.37789849999996,1.8385235570000305]},"properties":{"OBJECTID1":165,"OBJECTID":197,"Country_Name":"Kiribati","ISO3166_1_Alpha_3":"KIR","ISO3166_1_Alpha_2":"KI","Refugees":5}},{"type":"Feature","id":166,"geometry":{"type":"Point","coordinates":[139.26813800000002,36.65673438400006]},"properties":{"OBJECTID1":166,"OBJECTID":190,"Country_Name":"Japan","ISO3166_1_Alpha_3":"JPN","ISO3166_1_Alpha_2":"JP","Refugees":56}},{"type":"Feature","id":167,"geometry":{"type":"Point","coordinates":[-78.039729956999963,24.703818194000064]},"properties":{"OBJECTID1":167,"OBJECTID":187,"Country_Name":"The Bahamas","ISO3166_1_Alpha_3":"BHS","ISO3166_1_Alpha_2":"BS","Refugees":1598}},{"type":"Feature","id":168,"geometry":{"type":"Point","coordinates":[-61.193974945999969,13.256501181000033]},"properties":{"OBJECTID1":168,"OBJECTID":201,"Country_Name":"Saint Vincent and the Grenadines","ISO3166_1_Alpha_3":"VCT","ISO3166_1_Alpha_2":"VC","Refugees":194}},{"type":"Feature","id":169,"geometry":{"type":"Point","coordinates":[-71.740793499999938,21.816520447000073]},"properties":{"OBJECTID1":169,"OBJECTID":188,"Country_Name":"Turks and Caicos Islands","ISO3166_1_Alpha_3":"TCA","ISO3166_1_Alpha_2":"TC","Refugees":14}},{"type":"Feature","id":170,"geometry":{"type":"Point","coordinates":[-61.67903899099997,12.117726395000034]},"properties":{"OBJECTID1":170,"OBJECTID":200,"Country_Name":"Grenada","ISO3166_1_Alpha_3":"GRD","ISO3166_1_Alpha_2":"GD","Refugees":117}},{"type":"Feature","id":171,"geometry":{"type":"Point","coordinates":[-59.540557499999977,13.147665107000023]},"properties":{"OBJECTID1":171,"OBJECTID":202,"Country_Name":"Barbados","ISO3166_1_Alpha_3":"BRB","ISO3166_1_Alpha_2":"BB","Refugees":577}},{"type":"Feature","id":172,"geometry":{"type":"Point","coordinates":[-61.293937072999938,10.42185938800003]},"properties":{"OBJECTID1":172,"OBJECTID":199,"Country_Name":"Trinidad and Tobago","ISO3166_1_Alpha_3":"TTO","ISO3166_1_Alpha_2":"TT","Refugees":576}},{"type":"Feature","id":173,"geometry":{"type":"Point","coordinates":[-149.42048351199998,-17.66391402499994]},"properties":{"OBJECTID1":173,"OBJECTID":194,"Country_Name":"French Polynesia","ISO3166_1_Alpha_3":"PYF","ISO3166_1_Alpha_2":"PF","Refugees":0}},{"type":"Feature","id":174,"geometry":{"type":"Point","coordinates":[-19.02141249999994,64.798853312000062]},"properties":{"OBJECTID1":174,"OBJECTID":192,"Country_Name":"Iceland","ISO3166_1_Alpha_3":"ISL","ISO3166_1_Alpha_2":"IS","Refugees":0}},{"type":"Feature","id":175,"geometry":{"type":"Point","coordinates":[55.467125782000039,-4.6760769769999797]},"properties":{"OBJECTID1":175,"OBJECTID":196,"Country_Name":"Seychelles","ISO3166_1_Alpha_3":"SYC","ISO3166_1_Alpha_2":"SC","Refugees":10}},{"type":"Feature","id":176,"geometry":{"type":"Point","coordinates":[-62.757975422999948,17.332253514000058]},"properties":{"OBJECTID1":176,"OBJECTID":208,"Country_Name":"Saint Kitts and Nevis","ISO3166_1_Alpha_3":"KNA","ISO3166_1_Alpha_2":"KN","Refugees":36}},{"type":"Feature","id":177,"geometry":{"type":"Point","coordinates":[-64.615486499999975,18.433098361000077]},"properties":{"OBJECTID1":177,"OBJECTID":213,"Country_Name":"British Virgin Islands","ISO3166_1_Alpha_3":"VGB","ISO3166_1_Alpha_2":"VG","Refugees":0}},{"type":"Feature","id":178,"geometry":{"type":"Point","coordinates":[-81.251798690999976,19.318286502000035]},"properties":{"OBJECTID1":178,"OBJECTID":215,"Country_Name":"Cayman Islands","ISO3166_1_Alpha_3":"CYM","ISO3166_1_Alpha_2":"KY","Refugees":0}},{"type":"Feature","id":179,"geometry":{"type":"Point","coordinates":[-77.318810370999984,18.155226402000039]},"properties":{"OBJECTID1":179,"OBJECTID":214,"Country_Name":"Jamaica","ISO3166_1_Alpha_3":"JAM","ISO3166_1_Alpha_2":"JM","Refugees":2642}},{"type":"Feature","id":180,"geometry":{"type":"Point","coordinates":[-63.021443499999975,18.244106158000022]},"properties":{"OBJECTID1":180,"OBJECTID":212,"Country_Name":"Anguilla","ISO3166_1_Alpha_3":"AIA","ISO3166_1_Alpha_2":"AI","Refugees":0}},{"type":"Feature","id":181,"geometry":{"type":"Point","coordinates":[-64.766812499999958,32.294597981000038]},"properties":{"OBJECTID1":181,"OBJECTID":216,"Country_Name":"Bermuda","ISO3166_1_Alpha_3":"BMU","ISO3166_1_Alpha_2":"BM","Refugees":6}},{"type":"Feature","id":182,"geometry":{"type":"Point","coordinates":[57.569566703000078,-20.279323670999929]},"properties":{"OBJECTID1":182,"OBJECTID":219,"Country_Name":"Mauritius","ISO3166_1_Alpha_3":"MUS","ISO3166_1_Alpha_2":"MU","Refugees":283}},{"type":"Feature","id":183,"geometry":{"type":"Point","coordinates":[-61.356917677999945,15.436440522000055]},"properties":{"OBJECTID1":183,"OBJECTID":204,"Country_Name":"Dominica","ISO3166_1_Alpha_3":"DMA","ISO3166_1_Alpha_2":"DM","Refugees":97}},{"type":"Feature","id":184,"geometry":{"type":"Point","coordinates":[-61.789600198999949,17.074794107000059]},"properties":{"OBJECTID1":184,"OBJECTID":207,"Country_Name":"Antigua and Barbuda","ISO3166_1_Alpha_3":"ATG","ISO3166_1_Alpha_2":"AG","Refugees":97}},{"type":"Feature","id":185,"geometry":{"type":"Point","coordinates":[43.339727591000042,-11.655423646999964]},"properties":{"OBJECTID1":185,"OBJECTID":220,"Country_Name":"Comoros","ISO3166_1_Alpha_3":"COM","ISO3166_1_Alpha_2":"KM","Refugees":2338}},{"type":"Feature","id":186,"geometry":{"type":"Point","coordinates":[6.6076353250000466,0.23556464900002538]},"properties":{"OBJECTID1":186,"OBJECTID":221,"Country_Name":"São Tomé and Principe","ISO3166_1_Alpha_3":"STP","ISO3166_1_Alpha_2":"ST","Refugees":8}},{"type":"Feature","id":187,"geometry":{"type":"Point","coordinates":[-172.43824307599996,-13.630546953999954]},"properties":{"OBJECTID1":187,"OBJECTID":236,"Country_Name":"Samoa","ISO3166_1_Alpha_3":"WSM","ISO3166_1_Alpha_2":"WS","Refugees":17}},{"type":"Feature","id":188,"geometry":{"type":"Point","coordinates":[-23.636846272999946,15.081798749000029]},"properties":{"OBJECTID1":188,"OBJECTID":222,"Country_Name":"Cabo Verde","ISO3166_1_Alpha_3":"CPV","ISO3166_1_Alpha_2":"CV","Refugees":15}},{"type":"Feature","id":189,"geometry":{"type":"Point","coordinates":[-159.78651048499998,-21.219343872999957]},"properties":{"OBJECTID1":189,"OBJECTID":233,"Country_Name":"Cook Islands","ISO3166_1_Alpha_3":"COK","ISO3166_1_Alpha_2":"CK","Refugees":0}},{"type":"Feature","id":190,"geometry":{"type":"Point","coordinates":[14.44136153200003,35.890610706000075]},"properties":{"OBJECTID1":190,"OBJECTID":223,"Country_Name":"Malta","ISO3166_1_Alpha_3":"MLT","ISO3166_1_Alpha_2":"MT","Refugees":11}},{"type":"Feature","id":191,"geometry":{"type":"Point","coordinates":[-175.20785499999997,-21.190286543999946]},"properties":{"OBJECTID1":191,"OBJECTID":234,"Country_Name":"Tonga","ISO3166_1_Alpha_3":"TON","ISO3166_1_Alpha_2":"TO","Refugees":65}},{"type":"Feature","id":192,"geometry":{"type":"Point","coordinates":[103.81346757500006,1.3589210190000358]},"properties":{"OBJECTID1":192,"OBJECTID":231,"Country_Name":"Singapore","ISO3166_1_Alpha_3":"SGP","ISO3166_1_Alpha_2":"SG","Refugees":43}},{"type":"Feature","id":193,"geometry":{"type":"Point","coordinates":[160.17030259000012,-9.6226092729999664]},"properties":{"OBJECTID1":193,"OBJECTID":237,"Country_Name":"Solomon Islands","ISO3166_1_Alpha_3":"SLB","ISO3166_1_Alpha_2":"SB","Refugees":73}},{"type":"Feature","id":194,"geometry":{"type":"Point","coordinates":[166.93313206700009,-0.52078280899996798]},"properties":{"OBJECTID1":194,"OBJECTID":240,"Country_Name":"Nauru","ISO3166_1_Alpha_3":"NRU","ISO3166_1_Alpha_2":"NR","Refugees":5}},{"type":"Feature","id":195,"geometry":{"type":"Point","coordinates":[73.492042000000083,4.1754653390000271]},"properties":{"OBJECTID1":195,"OBJECTID":239,"Country_Name":"Maldives","ISO3166_1_Alpha_3":"MDV","ISO3166_1_Alpha_2":"MV","Refugees":62}},{"type":"Feature","id":196,"geometry":{"type":"Point","coordinates":[179.20500726400007,-8.5040679889999637]},"properties":{"OBJECTID1":196,"OBJECTID":238,"Country_Name":"Tuvalu","ISO3166_1_Alpha_3":"TUV","ISO3166_1_Alpha_2":"TV","Refugees":0}},{"type":"Feature","id":197,"geometry":{"type":"Point","coordinates":[158.23401905200012,6.8826878960000499]},"properties":{"OBJECTID1":197,"OBJECTID":241,"Country_Name":"Federated States of Micronesia","ISO3166_1_Alpha_3":"FSM","ISO3166_1_Alpha_2":"FM","Refugees":0}},{"type":"Feature","id":198,"geometry":{"type":"Point","coordinates":[166.85377455300011,-15.23148367899995]},"properties":{"OBJECTID1":198,"OBJECTID":244,"Country_Name":"Vanuatu","ISO3166_1_Alpha_3":"VUT","ISO3166_1_Alpha_2":"VU","Refugees":13}},{"type":"Feature","id":199,"geometry":{"type":"Point","coordinates":[113.55645537900011,22.137158273000068]},"properties":{"OBJECTID1":199,"OBJECTID":254,"Country_Name":"Macao S.A.R","ISO3166_1_Alpha_3":"MAC","ISO3166_1_Alpha_2":"MO","Refugees":15}},{"type":"Feature","id":200,"geometry":{"type":"Point","coordinates":[-169.86934607399996,-19.048919829999932]},"properties":{"OBJECTID1":200,"OBJECTID":245,"Country_Name":"Niue","ISO3166_1_Alpha_3":"NIU","ISO3166_1_Alpha_2":"NU","Refugees":5}},{"type":"Feature","id":201,"geometry":{"type":"Point","coordinates":[50.546619442000065,26.052784580000036]},"properties":{"OBJECTID1":201,"OBJECTID":250,"Country_Name":"Bahrain","ISO3166_1_Alpha_3":"BHR","ISO3166_1_Alpha_2":"BH","Refugees":267}}]
}
